0 SL-3 DEB
1 14209U 83075C   13283.14165024  .00001827  00000-0  10939-3 0  7552
2 14209 097.5340 353.2823 0032274 138.1264 278.2618 15.11858469649972
0 SL-3 DEB
1 14209U 83075C   13286.12062728  .00002632  00000-0  15587-3 0  7571
2 14209 097.5340 356.2196 0032221 128.1257 291.7006 15.11864965650422
0 SL-3 DEB
1 14209U 83075C   13287.44345028  .00003385  00000-0  19931-3 0  7588
2 14209 097.5343 357.5241 0032242 123.8076 291.2318 15.11868773650628
0 SL-3 DEB
1 14209U 83075C   13288.51523491  .00003992  00000-0  23425-3 0  7597
2 14209 097.5343 358.5811 0032301 120.2391 004.5617 15.11880464650784
0 SL-3 DEB
1 14209U 83075C   13289.77140992  .00003303  00000-0  19441-3 0  7608
2 14209 097.5341 359.8200 0032428 116.0664 001.4939 15.11890334650975
0 SL-3 DEB
1 14209U 83075C   13291.02949196  .00002881  00000-0  17001-3 0  7613
2 14209 097.5335 001.0607 0032514 111.9136 008.8271 15.11897959651161
0 SL-3 DEB
1 14209U 83075C   13292.21100229  .00002544  00000-0  15055-3 0  7625
2 14209 097.5328 002.2259 0032531 108.0453 319.4036 15.11904181651343
0 SL-3 DEB
1 14209U 83075C   13293.46639068  .00002776  00000-0  16390-3 0  7632
2 14209 097.5323 003.4637 0032484 103.9694 312.0721 15.11909658651534
0 SL-3 DEB
1 14209U 83075C   13294.80243050  .00003281  00000-0  19300-3 0  7640
2 14209 097.5319 004.7810 0032392 099.5749 023.7835 15.11914474651731
0 SL-3 DEB
1 14209U 83075C   13296.11472132  .00004214  00000-0  24676-3 0  7651
2 14209 097.5319 006.0748 0032295 095.2186 326.3031 15.11918740651938
